SHIYAN-1 (SY-1)         
1 28220U 04012A   26068.73650539  .00016393  00000+0  54854-3 0  9991
2 28220  97.8764 140.5238 0005873  23.6952 336.4557 15.31043463195862
STARLINK-31420          
1 59223U 24046Y   26068.47667750  .00000258  00000+0  20839-4 0  9991
2 59223  53.1591 156.5581 0001393  29.2244 330.8835 15.30182009113001
